"tafId","icaoId","dbPopTime","bulletinTime","issueTime","validTimeFrom","validTimeTo","rawTAF","mostRecent","remarks","lat","lon","elev","prior","name","fcsts"
16661401,"KABR","2024-07-09 05:29:09","2024-07-09 05:28:00","2024-07-09 05:28:00",1720504800,1720591200,"KABR 090528Z 0906/1006 VRB03KT P6SM SKC FM091700 35006KT P6SM SCT050 FM100200 VRB03KT P6SM BKN250",1,"",45.443600000000004,-98.4138,397,3,"Aberdeen Rgnl, SD, US",
16660583,"KAIA","2024-07-09 05:20:06","2024-07-09 05:20:00","2024-07-09 05:20:00",1720504800,1720591200,"KAIA 090520Z 0906/1006 16006KT P6SM FEW100 FM091700 34007KT P6SM SCT250 FM100100 04010KT P6SM SCT250",1,"",42.0573,-102.802,1198,4,"Alliance Muni, NE, US",
16660595,"KALO","2024-07-09 05:20:07","2024-07-09 05:20:00","2024-07-09 05:20:00",1720504800,1720591200,"KALO 090520Z 0906/1006 VRB03KT P6SM SCT250 FM091400 01008KT P6SM SCT050 OVC250",1,"",42.5544,-92.4013,264,3,"Waterloo Rgnl, IA, US",
16661453,"KALS","2024-07-09 05:30:12","2024-07-09 05:29:00","2024-07-09 05:29:00",1720504800,1720591200,"KALS 090529Z 0906/1006 12008KT P6SM SCT110 FM091000 VRB05KT P6SM SKC FM092000 35008KT P6SM VCSH SCT120 FM100200 06010KT P6SM BKN100 BKN180",1,"",37.4393,-105.862,2299,3,"Alamosa/Bergman Fld, CO, US",
16661838,"KAPA","2024-07-09 05:37:29","2024-07-09 05:37:00","2024-07-09 05:37:00",1720504800,1720591200,"KAPA 090537Z 0906/1006 20006KT P6SM SKC FM091600 33006KT P6SM SKC FM091800 02010KT P6SM SCT110 FM092300 05010KT P6SM SCT110 BKN150 FM100400 20008KT P6SM FEW110",1,"",39.5599,-104.848,1791,5,"Denver/Centennial Arpt, CO, US",
16663657,"KAPN","2024-07-09 10:17:37","2024-07-09 10:17:00","2024-07-09 10:17:00",1720519200,1720591200,"KAPN 091017Z 0910/1006 VRB03KT P6SM SKC TEMPO 0910/0912 4SM BR FEW002 FM091500 28006KT P6SM VCSH BKN040 FM100000 VRB03KT P6SM BKN050",1,"AMD",45.0716,-83.5645,208,2,"Alpena Cnty Rgnl, MI, US",
16660959,"KASE","2024-07-09 05:20:32","2024-07-09 05:20:00","2024-07-09 05:20:00",1720504800,1720591200,"KASE 090520Z 0906/1006 21006KT P6SM SKC FM091400 VRB03KT P6SM SKC FM091800 34008G17KT P6SM FEW100 FM100300 21006KT P6SM SKC",1,"",39.2299,-106.871,2384,4,"Aspen/Pitkin Cnty, CO, US",
16663649,"KATW","2024-07-09 10:16:05","2024-07-09 10:15:00","2024-07-09 10:15:00",1720519200,1720591200,"KATW 091015Z 0910/1006 VRB04KT 6SM BR SCT250 TEMPO 0910/0912 3SM BR FM091300 29003KT P6SM SCT250 FM091700 VRB03KT P6SM SCT040 TEMPO 0917/0920 BKN040 FM092300 13005KT P6SM SCT050",1,"AMD",44.2519,-88.526,266,5,"Appleton/Outagamie Cnty, WI, US",
16661399,"KATY","2024-07-09 05:29:06","2024-07-09 05:28:00","2024-07-09 05:28:00",1720504800,1720591200,"KATY 090528Z 0906/1006 VRB03KT P6SM SKC FM091800 32006KT P6SM SCT045 FM100200 VRB03KT P6SM BKN250",1,"",44.9045,-97.1496,531,4,"Watertown Rgnl, SD, US",
16660660,"KAUW","2024-07-09 05:20:11","2024-07-09 05:20:00","2024-07-09 05:20:00",1720504800,1720591200,"KAUW 090520Z 0906/1006 VRB03KT P6SM SKC FM090800 VRB03KT 6SM BR SKC FM091000 VRB03KT 3SM BR SKC TEMPO 0910/0912 1SM BR SCT002 FM091300 29003KT P6SM SKC FM091700 32005KT P6SM SCT040 FM092300 33004KT P6SM FEW045",1,"",44.9265,-89.6248,367,3,"Wausau Downtown, WI, US",
16661077,"KAXN","2024-07-09 05:21:10","2024-07-09 05:20:00","2024-07-09 05:20:00",1720504800,1720591200,"KAXN 090520Z 0906/1006 00000KT P6SM SKC FM091300 28005KT P6SM SCT080",1,"",45.868,-95.394,433,3,"Alexandria/Chandler Fld, MN, US",
16662481,"KAZO","2024-07-09 07:34:01","2024-07-09 07:33:00","2024-07-09 07:33:00",1720512000,1720591200,"KAZO 090733Z 0908/1006 VRB03KT 1/2SM FG BKN250 TEMPO 0908/0912 2SM BR FM091300 25004KT P6SM BKN200 FM091800 23006KT P6SM VCSH BKN050 FM092100 23005KT P6SM VCTS BKN040CB FM100200 04005KT 3SM -SHRA BR OVC025",1,"AMD",42.2283,-85.546,264,4,"Kalamazoo Intl, MI, US",
16663525,"KBBG","2024-07-09 09:44:21","2024-07-09 09:44:00","2024-07-09 09:44:00",1720519200,1720591200,"KBBG 090944Z 0910/1006 02008KT 3SM SHRA BR OVC011 TEMPO 0910/0913 2SM SHRA BR OVC007 FM091800 33010G18KT P6SM BKN050",1,"AMD",36.5259,-93.1969,403,5,"Branson Arpt, MO, US",
16660676,"KBFF","2024-07-09 05:20:12","2024-07-09 05:20:00","2024-07-09 05:20:00",1720504800,1720591200,"KBFF 090520Z 0906/1006 10006KT P6SM SKC FM091800 36009KT P6SM FEW250 FM100200 06007KT P6SM SCT250",1,"",41.8747,-103.601,1204,3,"Scottsbluff/Western Nebraska Rgnl, NE, US",
16660668,"KBIS","2024-07-09 05:20:12","2024-07-09 05:20:00","2024-07-09 05:20:00",1720504800,1720591200,"KBIS 090520Z 0906/1006 VRB05KT P6SM FEW080 SCT200",1,"",46.7823,-100.757,506,1,"Bismarck Arpt, ND, US",
16661837,"KBJC","2024-07-09 05:37:27","2024-07-09 05:37:00","2024-07-09 05:37:00",1720504800,1720591200,"KBJC 090537Z 0906/1006 27005KT P6SM SKC FM091800 01008KT P6SM SCT110 FM092300 31010KT P6SM SCT110 BKN150 FM100400 26008KT P6SM FEW110",1,"",39.9008,-105.104,1694,5,"Rocky Mtn Metro, CO, US",
16660651,"KBJI","2024-07-09 05:20:11","2024-07-09 05:20:00","2024-07-09 05:20:00",1720504800,1720591200,"KBJI 090520Z 0906/1006 VRB05KT P6SM SCT250 FM091800 VRB05KT P6SM SCT060",1,"",47.5076,-94.9279,422,3,"Bemidji Municip, MN, US",
16660603,"KBMG","2024-07-09 05:20:07","2024-07-09 05:20:00","2024-07-09 05:20:00",1720504800,1720591200,"KBMG 090520Z 0906/1006 21005KT P6SM BKN200 FM091000 06006KT P6SM VCSH BKN060 FM092200 08009KT 6SM -SHRA VCTS BKN025CB FM100400 10007KT P6SM BKN018",1,"",39.1432,-86.6168,254,4,"Bloomington/Monroe Cnty, IN, US",
16660714,"KBMI","2024-07-09 05:20:15","2024-07-09 05:20:00","2024-07-09 05:20:00",1720504800,1720591200,"KBMI 090520Z 0906/1006 VRB05KT P6SM SCT035 BKN100 FM091100 VRB03KT 4SM BR OVC040 FM091400 15006KT 4SM -RA BR OVC015 FM092000 04010KT 3SM RA BR OVC007",1,"",40.4777,-88.9144,262,4,"Bloomington Rgnl, IL, US",
16661327,"KBPI","2024-07-09 05:26:41","2024-07-09 05:26:00","2024-07-09 05:26:00",1720504800,1720591200,"KBPI 090526Z 0906/1006 34008KT P6SM SKC FM091400 VRB05KT P6SM SKC FM092100 33009KT P6SM FEW120 FM100400 VRB06KT P6SM SKC",1,"",42.578,-110.11,2120,3,"Big Piney Arpt, WY, US",
16661229,"KBRD","2024-07-09 05:25:29","2024-07-09 05:25:00","2024-07-09 05:25:00",1720504800,1720591200,"KBRD 090525Z 0906/1006 VRB03KT P6SM FEW060 FM090700 VRB03KT 3SM BR FEW060 FM091300 VRB02KT P6SM FEW060 FM092100 31004KT P6SM -SHRA VCTS SCT040CB FM100000 VRB03KT P6SM SCT250",1,"",46.4021,-94.1273,372,3,"Brainerd/Lakes Rgnl, MN, US",
16660613,"KBRL","2024-07-09 05:20:08","2024-07-09 05:20:00","2024-07-09 05:20:00",1720504800,1720591200,"KBRL 090520Z 0906/1006 VRB03KT P6SM BKN120 FM091000 VRB02KT 3SM BR BKN150 FM091300 04005KT P6SM OVC100 FM092300 03005KT 6SM -RA OVC070",1,"",40.7729,-91.1255,208,4,"Burlington/SE Iowa Rgnl, IA, US",
16661981,"KBTL","2024-07-09 05:42:56","2024-07-09 05:42:00","2024-07-09 05:42:00",1720504800,1720591200,"KBTL 090542Z 0906/1006 VRB03KT P6SM BKN250 FM090900 VRB03KT 3SM BR BKN250 FM091300 25004KT P6SM BKN200 FM091800 23006KT P6SM VCSH BKN050 FM092100 23005KT P6SM VCTS BKN040CB FM100200 04005KT 3SM -SHRA BR OVC020",1,"",42.3119,-85.2415,282,6,"Battle Creek/Kellogg Fld Arpt, MI, US",
16660678,"KBWG","2024-07-09 05:20:12","2024-07-09 05:20:00","2024-07-09 05:20:00",1720504800,1720591200,"KBWG 090520Z 0906/1006 00000KT P6SM BKN250 FM091100 09004KT P6SM BKN080 FM091500 15008KT P6SM VCSH BKN050 FM091900 18013G20KT P6SM VCTS SCT035CB BKN080",1,"",36.9647,-86.4238,159,3,"Bowling Green/Warren Cnty, KY, US",
16660597,"KCDR","2024-07-09 05:20:07","2024-07-09 05:20:00","2024-07-09 05:20:00",1720504800,1720591200,"KCDR 090520Z 0906/1006 VRB05KT P6SM SKC FM090800 20005KT P6SM SKC FM091800 01010KT P6SM SCT250 FM100100 05008KT P6SM SCT250",1,"",42.8374,-103.098,1002,3,"Chadron Muni, NE, US",
16660975,"KCGI","2024-07-09 05:20:33","2024-07-09 05:20:00","2024-07-09 05:20:00",1720504800,1720591200,"KCGI 090520Z 0906/1006 00000KT P6SM OVC150 FM091000 04006KT 4SM SHRA BR VCTS OVC045CB FM091200 05007KT 4SM SHRA BR VCTS OVC015CB FM091500 06009KT P6SM VCSH OVC009 FM091700 07012G19KT 3SM +TSRA BR BKN012CB FM092200 30015G24KT P6SM VCSH BKN008",1,"",37.2254,-89.5785,103,2,"Cape Girardeau Rgnl, MO, US",
16663726,"KCID","2024-07-09 10:30:58","2024-07-09 10:30:00","2024-07-09 10:30:00",1720522800,1720591200,"KCID 091030Z 0911/1006 34003KT P6SM SCT150 FM091200 01005KT P6SM BKN150",1,"AMD",41.8829,-91.7246,257,3,"Cedar Rapids/E Iowa Arpt, IA, US",
16660601,"KCMI","2024-07-09 05:20:07","2024-07-09 05:20:00","2024-07-09 05:20:00",1720504800,1720591200,"KCMI 090520Z 0906/1006 VRB05KT P6SM SCT035 BKN100 FM091000 VRB03KT 6SM BR VCSH OVC035 FM091300 17005KT 4SM -RA BR OVC015 FM092000 05008KT 3SM RA BR OVC007",1,"",40.0324,-88.2755,227,3,"Champaign/Willard Arpt, IL, US",
16663612,"KCMX","2024-07-09 10:03:27","2024-07-09 10:03:00","2024-07-09 10:03:00",1720519200,1720591200,"KCMX 091003Z 0910/1006 30007KT P6SM SKC FM091800 32007KT P6SM SKC",1,"AMD",47.1705,-88.4854,326,3,"Houghton Cnty Mem, MI, US",
16663520,"KCNU","2024-07-09 09:42:36","2024-07-09 09:42:00","2024-07-09 09:42:00",1720519200,1720591200,"KCNU 090942Z 0910/1006 VRB03KT 1/2SM FG BKN002 FM091200 VRB03KT 2SM BR SCT002 BKN009 FM091600 36007KT P6SM SCT110",1,"AMD",37.6705,-95.4846,301,3,"Chanute/Johnson Arpt, KS, US",
16660571,"KCNY","2024-07-09 05:20:05","2024-07-09 05:20:00","2024-07-09 05:20:00",1720504800,1720591200,"KCNY 090520Z 0906/1006 VRB04KT P6SM SKC",1,"",38.7501,-109.763,1392,4,"Moab/Canyonland Fld, UT, US",
16661328,"KCOD","2024-07-09 05:26:41","2024-07-09 05:26:00","2024-07-09 05:26:00",1720504800,1720591200,"KCOD 090526Z 0906/1006 21006KT P6SM SKC FM091600 03009KT P6SM SKC FM100500 21006KT P6SM SKC",1,"",44.52,-109.027,1550,3,"Cody/Yellowstone Rgnl, WY, US",
16661447,"KCOS","2024-07-09 05:30:00","2024-07-09 05:29:00","2024-07-09 05:29:00",1720504800,1720591200,"KCOS 090529Z 0906/1006 15005KT P6SM SKC FM091000 36006KT P6SM SKC FM091800 12008KT P6SM SCT100 FM092100 09012KT P6SM SCT100 FM100300 34008KT P6SM SCT100 SCT200",1,"",38.8095,-104.689,1886,3,"Colorado Spring Muni, CO, US",
16660693,"KCOU","2024-07-09 05:20:13","2024-07-09 05:20:00","2024-07-09 05:20:00",1720504800,1720591200,"KCOU 090520Z 0906/1006 VRB03KT P6SM VCSH SCT010 OVC100 FM091200 VRB03KT 6SM SHRA BR OVC015 FM092100 01007KT 6SM SHRA BR OVC040 FM100200 36005KT P6SM VCSH BKN070",1,"",38.8171,-92.2148,272,3,"Columbia Rgnl, MO, US",
16661325,"KCPR","2024-07-09 05:26:39","2024-07-09 05:26:00","2024-07-09 05:26:00",1720504800,1720591200,"KCPR 090526Z 0906/1006 02006KT P6SM SKC FM091800 36010G18KT P6SM FEW110 FM100000 04009KT P6SM SKC",1,"",42.8978,-106.474,1623,1,"Casper/Natrona Cnty, WY, US",
16663355,"KCPS","2024-07-09 09:02:06","2024-07-09 09:02:00","2024-07-09 09:02:00",1720515600,1720591200,"KCPS 090902Z 0909/1006 VRB03KT 6SM -RA OVC100 FM091200 VRB03KT 6SM -SHRA OVC030 FM091400 VRB04KT 6SM SHRA BR OVC015 FM092100 02010G21KT 2SM +SHRA BR OVC010 FM100300 35010KT 4SM SHRA BR BKN015",1,"AMD",38.57,-90.156,125,5,"St Louis/Downtown Arpt, IL, US",
16662644,"KCWA","2024-07-09 08:02:16","2024-07-09 08:02:00","2024-07-09 08:02:00",1720512000,1720591200,"KCWA 090802Z 0908/1006 VRB04KT 6SM BR SKC FM091000 VRB03KT 1 1/2SM BR SKC TEMPO 0910/0912 1/2SM FG BKN002 FM091300 29003KT P6SM SKC FM091700 32005KT P6SM SCT040 FM092300 33004KT P6SM FEW045",1,"AMD",44.7795,-89.671,387,6,"Mosinee/C Wisconsin Arpt, WI, US",
16660697,"KCYS","2024-07-09 05:20:14","2024-07-09 05:20:00","2024-07-09 05:20:00",1720504800,1720591200,"KCYS 090520Z 0906/1006 23006KT P6SM FEW100 FM091300 31007KT P6SM SKC FM091900 02010G20KT P6SM BKN250 FM100200 09007KT P6SM SCT250",1,"",41.1579,-104.808,1868,2,"Cheyenne Rgnl, WY, US",
16660834,"KDBQ","2024-07-09 05:20:23","2024-07-09 05:20:00","2024-07-09 05:20:00",1720504800,1720591200,"KDBQ 090520Z 0906/1006 VRB03KT P6SM SCT150 FM091700 01006KT P6SM FEW040 BKN150",1,"",42.3984,-90.7092,317,3,"Dubuque Rgnl, IA, US",
16660825,"KDDC","2024-07-09 05:20:23","2024-07-09 05:20:00","2024-07-09 05:20:00",1720504800,1720591200,"KDDC 090520Z 0906/1006 17003KT P6SM FEW080 SCT100",1,"",37.7711,-99.9692,786,1,"Dodge City Arpt, KS, US",
16660614,"KDEC","2024-07-09 05:20:08","2024-07-09 05:20:00","2024-07-09 05:20:00",1720504800,1720591200,"KDEC 090520Z 0906/1006 VRB05KT P6SM SCT035 BKN100 FM090900 VRB03KT 6SM BR VCSH OVC035 FM091300 VRB03KT 4SM -RA BR OVC015 FM091900 04008KT 3SM RA BR OVC008",1,"",39.8308,-88.8719,205,4,"Decatur Arpt, IL, US",
16663456,"KDEN","2024-07-09 09:13:58","2024-07-09 09:13:00","2024-07-09 09:13:00",1720515600,1720612800,"KDEN 090913Z 0909/1012 22008KT P6SM SKC FM091500 31006KT P6SM SKC FM091800 02011KT P6SM SCT110 FM092300 08008KT P6SM SCT110 BKN150 FM100400 19008KT P6SM FEW110",1,"AMD",39.8466,-104.656,1656,0,"Denver Intl, CO, US",
16661099,"KDET","2024-07-09 05:21:38","2024-07-09 05:21:00","2024-07-09 05:21:00",1720504800,1720591200,"KDET 090521Z 0906/1006 VRB03KT P6SM SCT120 BKN200 FM091600 25006KT P6SM SCT050 BKN080 PROB30 0919/0923 4SM TSRA OVC045CB FM100400 04006KT 4SM SHRA SCT025 OVC060",1,"",42.4072,-83.009,190,5,"Detroit/C Young Arpt, MI, US",
16660657,"KDIK","2024-07-09 05:20:11","2024-07-09 05:20:00","2024-07-09 05:20:00",1720504800,1720591200,"KDIK 090520Z 0906/1006 VRB05KT P6SM SCT200",1,"",46.7997,-102.797,788,3,"Dickinson/Roosevelt , ND, US",
16661262,"KDLH","2024-07-09 05:25:34","2024-07-09 05:25:00","2024-07-09 05:25:00",1720504800,1720591200,"KDLH 090525Z 0906/1006 31004KT P6SM SKC FM091800 32004KT P6SM SCT045",1,"",46.8435,-92.1866,434,2,"Duluth Intl Arpt, MN, US",
16663340,"KDPA","2024-07-09 09:01:32","2024-07-09 09:01:00","2024-07-09 09:01:00",1720515600,1720591200,"KDPA 090901Z 0909/1006 26006KT P6SM SCT060 BKN200 FM091900 06011KT P6SM -SHRA SCT050 BKN070 OVC150 FM100000 05010KT 6SM -RA SCT020 OVC050 PROB30 1000/1004 4SM RA BKN018 OVC050 FM100400 01012G23KT 4SM RA SCT010 BKN015 OVC050 PROB30 1005/1006 2SM +RA OVC009",1,"AMD",41.8964,-88.2512,228,6,"Dupage Cnty Arpt, IL, US",
16660773,"KDRO","2024-07-09 05:20:19","2024-07-09 05:20:00","2024-07-09 05:20:00",1720504800,1720591200,"KDRO 090520Z 0906/1006 05006KT P6SM SKC FM091400 10003KT P6SM SKC FM091900 26010G20KT P6SM SCT100 FM100300 05006KT P6SM SKC",1,"",37.1431,-107.76,2021,4,"Durango/La Plata Cnty, CO, US",
16660588,"KDSM","2024-07-09 05:20:06","2024-07-09 05:20:00","2024-07-09 05:20:00",1720504800,1720591200,"KDSM 090520Z 0906/1006 VRB03KT P6SM SCT250 FM091500 01007KT P6SM SCT050 OVC250",1,"",41.534,-93.6531,286,1,"Des Moines Intl, IA, US",
16663403,"KDTW","2024-07-09 09:07:15","2024-07-09 09:07:00","2024-07-09 09:07:00",1720515600,1720612800,"KDTW 090907Z 0909/1012 VRB03KT P6SM SCT120 BKN200 FM091600 25006KT P6SM SCT050 BKN080 PROB30 0919/0923 4SM TSRA OVC045CB FM100400 04006KT 4SM SHRA SCT025 OVC060 FM100700 07012G20KT 2SM RA SCT007 OVC011",1,"AMD",42.2311,-83.3312,192,1,"Detroit/Metro Wayne Cnty, MI, US",
16660646,"KDVL","2024-07-09 05:20:10","2024-07-09 05:20:00","2024-07-09 05:20:00",1720504800,1720591200,"KDVL 090520Z 0906/1006 VRB05KT P6SM SCT100 FM091800 VRB05KT P6SM SCT060",1,"",48.1136,-98.9034,439,3,"Devils Lake Rgnl, ND, US",
16660639,"KEAR","2024-07-09 05:20:10","2024-07-09 05:20:00","2024-07-09 05:20:00",1720504800,1720591200,"KEAR 090520Z 0906/1006 VRB04KT P6SM SKC FM091700 01006KT P6SM SCT060 FM100000 07005KT P6SM SKC",1,"",40.7193,-99.0086,649,4,"Kearney Rgnl, NE, US",
16660786,"KEAU","2024-07-09 05:20:20","2024-07-09 05:20:00","2024-07-09 05:20:00",1720504800,1720591200,"KEAU 090520Z 0906/1006 00000KT P6SM SKC FM091000 00000KT 4SM BR SKC FM091300 30004KT P6SM SCT080",1,"",44.8665,-91.4881,271,3,"Eau Claire/Chippewa Valley Rgnl, WI, US",
16660958,"KEGE","2024-07-09 05:20:32","2024-07-09 05:20:00","2024-07-09 05:20:00",1720504800,1720591200,"KEGE 090520Z 0906/1006 10003KT P6SM SKC FM091400 VRB03KT P6SM SKC FM091800 26005KT P6SM FEW100 FM100300 10003KT P6SM SKC",1,"",39.6448,-106.918,1993,3,"Eagle Cnty Rgnl, CO, US",
16660620,"KENW","2024-07-09 05:20:08","2024-07-09 05:20:00","2024-07-09 05:20:00",1720504800,1720591200,"KENW 090520Z 0906/1006 VRB04KT P6SM BKN250 FM091600 09005KT P6SM SCT040 BKN110 FM100100 VRB04KT P6SM OVC110",1,"",42.5953,-87.9383,222,4,"Kenosha Rgnl, WI, US",
16660821,"KEVV","2024-07-09 05:20:23","2024-07-09 05:20:00","2024-07-09 05:20:00",1720504800,1720591200,"KEVV 090520Z 0906/1006 VRB03KT P6SM OVC150 FM091200 02004KT 6SM -SHRA BR VCTS BKN045CB FM091400 07007KT P6SM VCSH BKN015 FM092000 14009KT P6SM VCTS BKN035CB FM092200 15012G20KT 3SM +TSRA BR BKN025CB FM100100 22011G19KT P6SM VCSH BKN015",1,"",38.0502,-87.5147,123,2,"Evansville Rgnl, IN, US",
16663718,"KFAR","2024-07-09 10:29:09","2024-07-09 10:29:00","2024-07-09 10:29:00",1720519200,1720591200,"KFAR 091029Z 0910/1006 VRB06KT 1 1/2SM BR SKC FM091400 VRB06KT P6SM SKC FM091800 VRB05KT P6SM SCT060",1,"AMD",46.9242,-96.8119,276,2,"Fargo/Hector Intl, ND, US",
16661097,"KFNT","2024-07-09 05:21:34","2024-07-09 05:21:00","2024-07-09 05:21:00",1720504800,1720591200,"KFNT 090521Z 0906/1006 22004KT P6SM VCSH SCT060 BKN100 TEMPO 0906/0907 6SM -SHRA BKN060 OVC100 FM091200 VRB03KT P6SM SCT120 OVC200 FM091600 25006KT P6SM SCT045 OVC080 FM100500 06006KT 4SM SHRA SCT025 OVC060",1,"",42.9669,-83.75,235,4,"Flint/Bishop Intl, MI, US",
16660702,"KFOD","2024-07-09 05:20:14","2024-07-09 05:20:00","2024-07-09 05:20:00",1720504800,1720591200,"KFOD 090520Z 0906/1006 VRB03KT P6SM SKC FM091100 VRB03KT 5SM BR FEW050 FM091300 01005KT P6SM SCT050 SCT250",1,"",42.549,-94.182,347,4,"Fort Dodge Rgnl, IA, US",
16661591,"KFOE","2024-07-09 05:31:40","2024-07-09 05:31:00","2024-07-09 05:31:00",1720504800,1720591200,"KFOE 090531Z 0906/1006 36006KT P6SM SCT250",1,"",38.9414,-95.6513,315,7,"Topeka/Forbes Fld, KS, US",
16661071,"KFSD","2024-07-09 05:20:56","2024-07-09 05:20:00","2024-07-09 05:20:00",1720504800,1720591200,"KFSD 090520Z 0906/1006 VRB03KT P6SM SCT250 FM091800 VRB03KT P6SM VCSH SCT250 FM100200 VRB02KT P6SM SCT220",1,"",43.5775,-96.7539,433,3,"Sioux Falls/Foss Fld, SD, US",
16661390,"KFWA","2024-07-09 05:28:39","2024-07-09 05:28:00","2024-07-09 05:28:00",1720504800,1720591200,"KFWA 090528Z 0906/1006 22004KT P6SM FEW040 BKN100 FM092100 VRB04KT 6SM -SHRA VCTS BKN030CB FM100400 07010KT 3SM SHRA OVC012",1,"",40.9725,-85.2064,243,2,"Fort Wayne Intl, IN, US",
16661407,"KGBD","2024-07-09 05:29:12","2024-07-09 05:29:00","2024-07-09 05:29:00",1720504800,1720591200,"KGBD 090529Z 0906/1006 VRB03KT P6SM SKC FM091700 34004KT P6SM FEW250 FM100100 04007KT P6SM FEW230 FM100500 14004KT P6SM FEW250",1,"",38.3405,-98.8592,573,4,"Great Bend Muni, KS, US",
16660570,"KGCC","2024-07-09 05:20:05","2024-07-09 05:20:00","2024-07-09 05:20:00",1720504800,1720591200,"KGCC 090520Z 0906/1006 VRB05KT P6SM SKC FM091800 36010KT P6SM SKC AMD NOT SKED",1,"",44.3398,-105.542,1328,3,"Gillette/Campbell Cnty, WY, US",
16660789,"KGCK","2024-07-09 05:20:20","2024-07-09 05:20:00","2024-07-09 05:20:00",1720504800,1720591200,"KGCK 090520Z 0906/1006 08003KT P6SM SKC",1,"",37.9221,-100.723,877,3,"Garden City Rgnl, KS, US",
16660749,"KGFK","2024-07-09 05:20:17","2024-07-09 05:20:00","2024-07-09 05:20:00",1720504800,1720591200,"KGFK 090520Z 0906/1006 VRB06KT P6SM SCT100 FM091800 VRB05KT P6SM SCT060",1,"",47.9428,-97.1829,256,3,"Grand Forks Intl, ND, US",
16660831,"KGJT","2024-07-09 05:20:23","2024-07-09 05:20:00","2024-07-09 05:20:00",1720504800,1720591200,"KGJT 090520Z 0906/1006 04009KT P6SM SKC FM091400 13010KT P6SM SKC FM091900 27008KT P6SM FEW100 FM100300 05009KT P6SM SKC",1,"",39.1344,-108.541,1475,2,"Grand Junction Rgnl, CO, US",
16660628,"KGLD","2024-07-09 05:20:09","2024-07-09 05:20:00","2024-07-09 05:20:00",1720504800,1720591200,"KGLD 090520Z 0906/1006 VRB06KT P6SM FEW250 FM091400 23009KT P6SM SKC FM091800 VRB06KT P6SM FEW250 FM100100 12009KT P6SM SKC",1,"",39.3673,-101.693,1111,2,"Goodland/Renner Fld, KS, US",
16663648,"KGRB","2024-07-09 10:15:45","2024-07-09 10:15:00","2024-07-09 10:15:00",1720519200,1720591200,"KGRB 091015Z 0910/1006 VRB03KT 6SM BR SCT250 TEMPO 0910/0912 3SM BR FM091300 29003KT P6SM SCT250 FM091700 VRB03KT P6SM SCT040 TEMPO 0917/0920 BKN040 FM092300 13005KT P6SM SCT050",1,"AMD",44.4796,-88.137,209,2,"Green Bay/Straubel Intl, WI, US",
16660644,"KGRI","2024-07-09 05:20:10","2024-07-09 05:20:00","2024-07-09 05:20:00",1720504800,1720591200,"KGRI 090520Z 0906/1006 VRB04KT P6SM SKC FM091700 01006KT P6SM SCT060 FM100000 07005KT P6SM SKC",1,"",40.9615,-98.313,562,2,"Grand Island Rgnl, NE, US",
16661982,"KGRR","2024-07-09 05:43:00","2024-07-09 05:42:00","2024-07-09 05:42:00",1720504800,1720591200,"KGRR 090542Z 0906/1006 23004KT P6SM BKN250 FM091000 VRB03KT 6SM BR BKN250 FM091300 25006KT P6SM BKN200 FM100300 18004KT P6SM OVC110",1,"",42.8821,-85.523,239,2,"Grand Rapids Intl, MI, US",
16660771,"KGUC","2024-07-09 05:20:19","2024-07-09 05:20:00","2024-07-09 05:20:00",1720504800,1720591200,"KGUC 090520Z 0906/1006 36005KT P6SM SKC FM091300 VRB03KT P6SM SKC FM091800 27007KT P6SM FEW100 FM100300 35005KT P6SM SKC",1,"",38.5322,-106.942,2337,3,"Gunnison Arpt, CO, US",
16663339,"KGYY","2024-07-09 09:01:32","2024-07-09 09:01:00","2024-07-09 09:01:00",1720515600,1720591200,"KGYY 090901Z 0909/1006 24004KT P6SM SCT080 BKN200 FM091300 34006KT P6SM VCSH SCT050 BKN150 FM091900 06011KT P6SM -SHRA SCT050 BKN070 OVC150 FM092300 05010KT 6SM -RA SCT020 OVC050 PROB30 1000/1003 4SM RA BKN018 OVC050 FM100300 01012G23KT 4SM RA SCT010 BKN015 OVC050 PROB30 1004/1006 2SM +RA OVC009",1,"AMD",41.6121,-87.4091,179,6,"Gary Intl, IN, US",
16660666,"KHDN","2024-07-09 05:20:12","2024-07-09 05:20:00","2024-07-09 05:20:00",1720504800,1720591200,"KHDN 090520Z 0906/1006 11006KT P6SM SKC FM090800 10010KT P6SM SKC FM091600 VRB04KT P6SM SKC FM091900 30008KT P6SM FEW100 FM100300 11006KT P6SM SKC",1,"",40.4842,-107.23,2012,6,"Hayden/Yampa Valley Arpt, CO, US",
16663723,"KHIB","2024-07-09 10:29:34","2024-07-09 10:29:00","2024-07-09 10:29:00",1720519200,1720591200,"KHIB 091029Z 0910/1006 00000KT 3SM BR FEW045 TEMPO 0910/0912 3/4SM BR FM091200 VRB02KT P6SM SCT250 FM091700 VRB03KT P6SM SCT090 FM092100 33004KT P6SM SCT050",1,"AMD",47.3804,-92.8325,409,4,"Hibbing/Chisholm Arpt, MN, US",
16661085,"KHON","2024-07-09 05:21:16","2024-07-09 05:20:00","2024-07-09 05:20:00",1720504800,1720591200,"KHON 090520Z 0906/1006 VRB03KT P6SM SCT250 FM091700 VRB03KT P6SM SCT250",1,"",44.3792,-98.2227,391,1,"Huron Rgnl, SD, US",
16660608,"KHUF","2024-07-09 05:20:08","2024-07-09 05:20:00","2024-07-09 05:20:00",1720504800,1720591200,"KHUF 090520Z 0906/1006 21006KT P6SM SCT050 BKN180 FM091200 05006KT 6SM -SHRA BKN050 FM092300 08009KT 4SM -SHRA VCTS BKN025CB FM100500 10007KT P6SM BKN018",1,"",39.4429,-87.3221,174,3,"Terre Haute/Hulman Fld, IN, US",
16661411,"KHUT","2024-07-09 05:29:16","2024-07-09 05:29:00","2024-07-09 05:29:00",1720504800,1720591200,"KHUT 090529Z 0906/1006 VRB03KT P6SM SKC FM091700 36007KT P6SM FEW250 FM100200 05004KT P6SM FEW250 FM100400 00000KT P6SM SKC",1,"",38.0682,-97.8607,464,4,"Hutchinson Muni, KS, US",
16661228,"KHYR","2024-07-09 05:25:27","2024-07-09 05:25:00","2024-07-09 05:25:00",1720504800,1720591200,"KHYR 090525Z 0906/1006 00000KT 1 1/2SM BR FEW006 FM090900 VRB02KT 1/2SM FG SCT006 FM091200 VRB02KT 3SM BR SCT006 FM091300 VRB02KT P6SM SKC",1,"",46.0303,-91.4426,369,4,"Hayward Muni, WI, US",
16660755,"KHYS","2024-07-09 05:20:18","2024-07-09 05:20:00","2024-07-09 05:20:00",1720504800,1720591200,"KHYS 090520Z 0906/1006 04009KT P6SM SKC",1,"",38.8392,-99.2742,607,5,"Hays Rgnl, KS, US",
16661413,"KICT","2024-07-09 05:29:17","2024-07-09 05:29:00","2024-07-09 05:29:00",1720504800,1720591200,"KICT 090529Z 0906/1006 12004KT P6SM SKC FM091300 35007KT P6SM FEW250 FM100300 09005KT P6SM FEW250",1,"",37.6475,-97.43,428,2,"Wichita/Eisenhower Arpt, KS, US",
16662204,"KIND","2024-07-09 06:15:18","2024-07-09 06:15:00","2024-07-09 06:15:00",1720504800,1720612800,"KIND 090615Z 0906/1012 22006KT P6SM -RA BKN150 FM091000 26004KT P6SM VCSH BKN050 FM100000 08009KT 4SM -SHRA VCTS BKN025CB FM100500 10007KT P6SM BKN018",1,"AMD",39.7252,-86.2816,242,2,"Indianapolis Intl, IN, US",
16661230,"KINL","2024-07-09 05:25:29","2024-07-09 05:25:00","2024-07-09 05:25:00",1720504800,1720591200,"KINL 090525Z 0906/1006 00000KT P6SM FEW250 FM091000 VRB02KT 6SM BR FEW250 FM091300 VRB02KT P6SM FEW250 FM091700 VRB03KT P6SM SCT050",1,"",48.5594,-93.3955,353,1,"International Falls/Einarson Fld, MN, US",
16662379,"KIWD","2024-07-09 07:04:25","2024-07-09 07:04:00","2024-07-09 07:04:00",1720508400,1720591200,"KIWD 090704Z 0907/1006 VRB03KT P6SM FEW070 FM091400 31004KT P6SM SKC FM091800 33006KT P6SM SKC",1,"AMD",46.5321,-90.126,373,3,"Ironwood/Iron Cnty, MI, US",
16660761,"KIXD","2024-07-09 05:20:18","2024-07-09 05:20:00","2024-07-09 05:20:00",1720504800,1720591200,"KIXD 090520Z 0906/1006 VRB05KT P6SM BKN250 FM091300 01008KT P6SM BKN150",1,"",38.8221,-94.8902,322,5,"Olathe/New Century Arpt, KS, US",
16661326,"KJAC","2024-07-09 05:26:39","2024-07-09 05:26:00","2024-07-09 05:26:00",1720504800,1720591200,"KJAC 090526Z 0906/1006 02005KT P6SM SKC FM091500 VRB05KT P6SM SKC FM091800 24008KT P6SM FEW110 FM100300 01007KT P6SM SKC",1,"",43.6129,-110.737,1967,3,"Jackson Hole Arpt, WY, US",
16661962,"KJKL","2024-07-09 05:40:43","2024-07-09 05:40:00","2024-07-09 05:40:00",1720504800,1720591200,"KJKL 090540Z 0906/1006 VRB03KT P6SM SCT250 FM091900 VRB03KT P6SM VCTS SCT040CB BKN100 FM100000 VRB03KT P6SM FEW040 SCT100",1,"",37.5913,-83.3137,414,3,"Jackson/Carroll Arpt, KY, US",
16663523,"KJLN","2024-07-09 09:43:15","2024-07-09 09:43:00","2024-07-09 09:43:00",1720519200,1720591200,"KJLN 090943Z 0910/1006 10007KT P6SM OVC100 FM091200 02010KT 5SM SHRA BR OVC025 FM091600 02010KT P6SM OVC040",1,"AMD",37.1522,-94.4952,297,3,"Joplin Rgnl, MO, US",
16660652,"KJMS","2024-07-09 05:20:11","2024-07-09 05:20:00","2024-07-09 05:20:00",1720504800,1720591200,"KJMS 090520Z 0906/1006 VRB05KT P6SM FEW050 SCT200",1,"",46.9259,-98.6704,455,3,"Jamestown Rgnl, ND, US",
16661979,"KJXN","2024-07-09 05:42:55","2024-07-09 05:42:00","2024-07-09 05:42:00",1720504800,1720591200,"KJXN 090542Z 0906/1006 VRB03KT 4SM -SHRA OVC080 FM090700 VRB03KT 5SM BR BKN080 FM090900 VRB03KT 2SM BR BKN250 FM091300 25004KT P6SM BKN200 FM091800 23006KT P6SM VCSH BKN050 FM092100 23005KT P6SM VCTS BKN040CB FM100200 04005KT 3SM -SHRA BR OVC025",1,"",42.259,-84.4589,303,3,"Jackson Cnty, MI, US",
16662205,"KLAF","2024-07-09 06:15:40","2024-07-09 06:15:00","2024-07-09 06:15:00",1720504800,1720591200,"KLAF 090615Z 0906/1006 21006KT P6SM -RA OVC060 FM091400 06006KT 6SM -SHRA BKN040 FM092300 08009KT 4SM -SHRA BKN025",1,"AMD",40.4124,-86.9474,182,3,"Lafayette/Purdue Univ Arpt, IN, US",
16661980,"KLAN","2024-07-09 05:42:56","2024-07-09 05:42:00","2024-07-09 05:42:00",1720504800,1720591200,"KLAN 090542Z 0906/1006 VRB03KT P6SM BKN250 FM090900 VRB03KT P6SM BKN250 FM091300 25004KT P6SM BKN200 FM091800 23006KT P6SM VCSH BKN050 FM100300 04005KT 3SM -SHRA BR OVC020",1,"",42.7761,-84.5997,261,4,"Lansing/Capital City Arpt, MI, US",
16660703,"KLAR","2024-07-09 05:20:14","2024-07-09 05:20:00","2024-07-09 05:20:00",1720504800,1720591200,"KLAR 090520Z 0906/1006 18006KT P6SM SKC FM091600 36007KT P6SM SCT250 FM092000 34012G22KT P6SM BKN250 FM100100 05008KT P6SM BKN250",1,"",41.3165,-105.673,2217,4,"Laramie Rgnl, WY, US",
16661130,"KLBF","2024-07-09 05:23:35","2024-07-09 05:23:00","2024-07-09 05:23:00",1720504800,1720591200,"KLBF 090523Z 0906/1006 VRB04KT P6SM SKC FM092000 10007KT P6SM SCT200",1,"",41.122,-100.669,843,1,"N Platte/Lee Bird Fld, NE, US",
16660580,"KLEX","2024-07-09 05:20:05","2024-07-09 05:20:00","2024-07-09 05:20:00",1720504800,1720591200,"KLEX 090520Z 0906/1006 VRB03KT P6SM BKN250 FM091600 15007KT P6SM OVC100 FM092000 17008KT P6SM VCTS BKN040CB FM100200 16012G18KT P6SM BKN080",1,"",38.0339,-84.6114,294,3,"Lexington/Blue Grass Aprt, KY, US",
16661324,"KLND","2024-07-09 05:26:39","2024-07-09 05:26:00","2024-07-09 05:26:00",1720504800,1720591200,"KLND 090526Z 0906/1006 24008KT P6SM SKC FM092100 04007KT P6SM FEW130 FM100300 24006KT P6SM SKC",1,"",42.8154,-108.726,1700,2,"Lander/Hunt Fld, WY, US",
16660567,"KLNK","2024-07-09 05:20:04","2024-07-09 05:20:00","2024-07-09 05:20:00",1720504800,1720591200,"KLNK 090520Z 0906/1006 35002KT P6SM SKC",1,"",40.8478,-96.7647,357,3,"Lincoln Arpt, NE, US",
16661959,"KLOZ","2024-07-09 05:40:42","2024-07-09 05:40:00","2024-07-09 05:40:00",1720504800,1720591200,"KLOZ 090540Z 0906/1006 VRB03KT P6SM SCT250 FM091800 VRB03KT P6SM VCTS FEW040CB SCT090 FM100000 VRB03KT P6SM FEW040 SCT100",1,"",37.0896,-84.0688,361,3,"London-Corbin Arpt, KY, US",
16663492,"KLSE","2024-07-09 09:35:19","2024-07-09 09:35:00","2024-07-09 09:35:00",1720519200,1720591200,"KLSE 090935Z 0910/1006 14003KT P6SM BCFG SCT004 TEMPO 0910/0913 1/2SM FG BKN004 FM091500 33005KT P6SM FEW050",1,"AMD",43.8792,-91.253,198,3,"La Crosse Muni, WI, US",
16661395,"KMBG","2024-07-09 05:28:59","2024-07-09 05:28:00","2024-07-09 05:28:00",1720504800,1720591200,"KMBG 090528Z 0906/1006 10003KT P6SM SKC FM091800 32006KT P6SM SKC FM092300 05006KT P6SM SKC",1,"",45.543,-100.404,515,3,"Mobridge Muni, SD, US",
16661095,"KMBS","2024-07-09 05:21:33","2024-07-09 05:21:00","2024-07-09 05:21:00",1720504800,1720591200,"KMBS 090521Z 0906/1006 24004KT P6SM BKN110 FM091700 26006KT P6SM SCT045 OVC250 FM100200 07005KT P6SM SCT040 BKN080 OVC150",1,"",43.5281,-84.0813,201,3,"Saginaw Intl, MI, US",
16660978,"KMCI","2024-07-09 05:20:33","2024-07-09 05:20:00","2024-07-09 05:20:00",1720504800,1720591200,"KMCI 090520Z 0906/1006 01005KT P6SM BKN250",1,"",39.2975,-94.7309,308,1,"Kansas City Intl, MO, US",
16660621,"KMCK","2024-07-09 05:20:09","2024-07-09 05:20:00","2024-07-09 05:20:00",1720504800,1720591200,"KMCK 090520Z 0906/1006 VRB06KT P6SM FEW250 FM092200 10008KT P6SM FEW250",1,"",40.204,-100.59,780,4,"McCook Muni, NE, US",
16660675,"KMCW","2024-07-09 05:20:12","2024-07-09 05:20:00","2024-07-09 05:20:00",1720504800,1720591200,"KMCW 090520Z 0906/1006 VRB04KT P6SM SKC FM091100 VRB04KT 6SM BR FEW050 FM091300 35007KT P6SM OVC150",1,"",43.1543,-93.3262,363,3,"Mason City Muni, IA, US",
16663341,"KMDW","2024-07-09 09:01:32","2024-07-09 09:01:00","2024-07-09 09:01:00",1720515600,1720612800,"KMDW 090901Z 0909/1012 26006KT P6SM SCT060 BKN200 FM091900 06011KT P6SM -SHRA SCT050 BKN070 OVC150 FM100000 05010KT 6SM -RA SCT020 OVC050 PROB30 1000/1003 4SM RA BKN018 OVC050 FM100300 01012G23KT 4SM RA SCT010 BKN015 OVC050 PROB30 1005/1011 2SM +RA OVC009",1,"AMD",41.7841,-87.7551,186,5,"Chicago/Midway Intl, IL, US",
16661590,"KMHK","2024-07-09 05:31:40","2024-07-09 05:31:00","2024-07-09 05:31:00",1720504800,1720591200,"KMHK 090531Z 0906/1006 01005KT P6SM SCT250",1,"",39.1346,-96.6789,320,4,"Manhattan Rgnl, KS, US",
16660829,"KMKC","2024-07-09 05:20:23","2024-07-09 05:20:00","2024-07-09 05:20:00",1720504800,1720591200,"KMKC 090520Z 0906/1006 VRB04KT P6SM BKN250 FM091300 01007KT P6SM BKN200",1,"",39.1279,-94.5892,228,6,"Kansas City/Wheeler Downtown Arpt, MO, US",
16663353,"KMKE","2024-07-09 09:02:02","2024-07-09 09:01:00","2024-07-09 09:01:00",1720515600,1720612800,"KMKE 090901Z 0909/1012 VRB04KT P6SM BKN250 FM091600 09005KT P6SM SCT040 BKN110 FM100600 VRB04KT P6SM BKN100 PROB30 1006/1012 4SM -SHRA OVC025",1,"AMD",42.9549,-87.9045,203,3,"Milwaukee/Mitchell Intl, WI, US",
16661984,"KMKG","2024-07-09 05:43:00","2024-07-09 05:42:00","2024-07-09 05:42:00",1720504800,1720591200,"KMKG 090542Z 0906/1006 22005KT P6SM BKN250 FM091100 00000KT 6SM BR BKN250 FM091600 26008KT P6SM OVC200 FM100200 03005KT P6SM OVC110",1,"",43.1711,-86.2368,190,4,"Muskegon Cnty Arpt, MI, US",
16663762,"KMLI","2024-07-09 10:31:32","2024-07-09 10:31:00","2024-07-09 10:31:00",1720522800,1720591200,"KMLI 091031Z 0911/1006 VRB02KT P6SM BKN150 FM091300 02006KT P6SM OVC150",1,"AMD",41.4482,-90.5237,174,3,"Moline/Quad City Intl, IL, US",
16660577,"KMOT","2024-07-09 05:20:05","2024-07-09 05:20:00","2024-07-09 05:20:00",1720504800,1720591200,"KMOT 090520Z 0906/1006 VRB05KT 6SM FU FEW050 SCT200",1,"",48.252,-101.269,507,3,"Minot Intl, ND, US",
16663349,"KMSN","2024-07-09 09:01:50","2024-07-09 09:01:00","2024-07-09 09:01:00",1720515600,1720591200,"KMSN 090901Z 0909/1006 00000KT P6SM BKN250 FM091500 VRB03KT P6SM SCT040 BKN250 FM100100 VRB03KT P6SM BKN200",1,"AMD",43.1407,-89.3452,262,2,"Madison/Dane Cnty Rgnl, WI, US",
16663389,"KMSP","2024-07-09 09:03:16","2024-07-09 09:02:00","2024-07-09 09:02:00",1720515600,1720612800,"KMSP 090902Z 0909/1012 VRB03KT P6SM SKC FM091400 32005KT P6SM SCT080",1,"AMD",44.8852,-93.2313,255,1,"Minneapolis-St Paul Intl, MN, US",
16660807,"KMTJ","2024-07-09 05:20:22","2024-07-09 05:20:00","2024-07-09 05:20:00",1720504800,1720591200,"KMTJ 090520Z 0906/1006 15007KT P6SM SKC FM091600 32007KT P6SM FEW100 FM100300 15007KT P6SM SKC",1,"",38.5054,-107.898,1755,4,"Montrose Rgnl, CO, US",
16660669,"KMTW","2024-07-09 05:20:12","2024-07-09 05:20:00","2024-07-09 05:20:00",1720504800,1720591200,"KMTW 090520Z 0906/1006 24005KT P6SM BKN120 FM090800 VRB03KT P6SM SCT250 FM091700 12005KT P6SM SCT040 TEMPO 0917/0919 BKN040 FM091900 14008KT P6SM SKC FM100200 VRB03KT P6SM SKC",1,"",44.1322,-87.6819,197,4,"Manitowoc Muni, WI, US",
16660688,"KOFK","2024-07-09 05:20:13","2024-07-09 05:20:00","2024-07-09 05:20:00",1720504800,1720591200,"KOFK 090520Z 0906/1006 27003KT P6SM SKC FM091600 05002KT P6SM SKC",1,"",41.9799,-97.4335,476,3,"Norfolk/Stefan Mem, NE, US",
16660683,"KOMA","2024-07-09 05:20:13","2024-07-09 05:20:00","2024-07-09 05:20:00",1720504800,1720591200,"KOMA 090520Z 0906/1006 35002KT P6SM FEW250 FM100100 08002KT P6SM FEW250",1,"",41.3119,-95.9018,299,2,"Omaha/Eppley Fld, NE, US",
16663344,"KORD","2024-07-09 09:01:34","2024-07-09 09:01:00","2024-07-09 09:01:00",1720515600,1720612800,"KORD 090901Z 0909/1012 26006KT P6SM SCT060 BKN200 FM091900 06011KT P6SM -SHRA SCT050 BKN070 OVC150 FM100000 05010KT 6SM -RA SCT020 OVC050 PROB30 1000/1004 4SM RA BKN018 OVC050 FM100400 01012G23KT 4SM RA SCT010 BKN015 OVC050 PROB30 1005/1011 2SM +RA OVC009",1,"AMD",41.9602,-87.9316,202,0,"Chicago/O'Hare Intl, IL, US",
16660582,"KOTM","2024-07-09 05:20:06","2024-07-09 05:20:00","2024-07-09 05:20:00",1720504800,1720591200,"KOTM 090520Z 0906/1006 VRB03KT P6SM BKN250 FM091500 01007KT P6SM SCT050 OVC250",1,"",41.1008,-92.4445,254,3,"Ottumwa Rgnl, IA, US",
16660794,"KOWB","2024-07-09 05:20:21","2024-07-09 05:20:00","2024-07-09 05:20:00",1720504800,1720591200,"KOWB 090520Z 0906/1006 00000KT P6SM BKN150 FM091100 05004KT P6SM VCSH BKN060 FM091400 14008KT P6SM VCSH BKN030 FM092200 18015G24KT 3SM +TSRA BR BKN035CB FM100200 23015G24KT P6SM VCSH BKN015",1,"",37.7297,-87.1683,121,4,"Owensboro/Daviess Cnty, KY, US",
16663542,"KPAH","2024-07-09 09:51:19","2024-07-09 09:51:00","2024-07-09 09:51:00",1720519200,1720591200,"KPAH 090951Z 0910/1006 VRB04KT 5SM SHRA BR VCTS BKN045CB TEMPO 0910/0912 3SM SHRA BR BKN040 FM091200 08007KT P6SM VCSH BKN014 FM091800 19009KT 3SM +TSRA BR BKN025CB FM092300 23012G19KT P6SM VCSH BKN012 FM100200 29015G24KT P6SM VCSH OVC009",1,"AMD",37.0652,-88.7793,125,3,"Paducah/Barkley Rgnl, KY, US",
16660725,"KPIA","2024-07-09 05:20:16","2024-07-09 05:20:00","2024-07-09 05:20:00",1720504800,1720591200,"KPIA 090520Z 0906/1006 VRB03KT P6SM SCT040 BKN100 FM091100 VRB03KT 4SM BR OVC040 FM091400 12005KT 4SM -RA BR OVC015 FM092100 02005KT 3SM RA BR OVC007",1,"",40.6675,-89.6842,200,2,"Peoria Intl, IL, US",
16661397,"KPIR","2024-07-09 05:29:01","2024-07-09 05:28:00","2024-07-09 05:28:00",1720504800,1720591200,"KPIR 090528Z 0906/1006 22004KT P6SM SKC FM091600 10004KT P6SM SKC FM091800 VRB05KT P6SM SKC",1,"",44.3819,-100.286,524,2,"Pierre Muni, SD, US",
16662744,"KPLN","2024-07-09 08:06:27","2024-07-09 08:06:00","2024-07-09 08:06:00",1720512000,1720591200,"KPLN 090806Z 0908/1006 VRB03KT 6SM BR SCT050 TEMPO 0908/0912 1 1/2SM BR FEW002 FM091500 29007KT P6SM BKN040",1,"AMD",45.5644,-84.7929,215,4,"Pellston Rgnl, MI, US",
16661317,"KPNA","2024-07-09 05:26:34","2024-07-09 05:26:00","2024-07-09 05:26:00",1720504800,1720591200,"KPNA 090526Z 0906/1006 31006KT P6SM SKC FM092100 31012KT P6SM FEW120 FM100300 30006KT P6SM SKC",1,"",42.7929,-109.805,2158,5,"Pinedale/Wentz Fld, WY, US",
16662375,"KPTK","2024-07-09 07:03:57","2024-07-09 07:03:00","2024-07-09 07:03:00",1720508400,1720591200,"KPTK 090703Z 0907/1006 VRB03KT P6SM SCT060 BKN100 FM091200 VRB03KT P6SM SCT120 OVC200 FM091600 25006KT P6SM SCT045 BKN080 PROB30 0919/0923 4SM TSRA OVC045CB FM100400 06006KT 4SM SHRA SCT025 OVC060",1,"AMD",42.6632,-83.41,295,5,"Pontiac/Oakland Intl, MI, US",
16661425,"KPUB","2024-07-09 05:29:48","2024-07-09 05:29:00","2024-07-09 05:29:00",1720504800,1720591200,"KPUB 090529Z 0906/1006 VRB05KT P6SM SKC FM091400 27006KT P6SM SKC FM091800 14010KT P6SM SKC FM100100 06010KT P6SM BKN120 BKN200 FM100500 35008KT P6SM FEW120",1,"",38.2887,-104.506,1441,2,"Pueblo Mem Arpt, CO, US",
16660685,"KRAP","2024-07-09 05:20:13","2024-07-09 05:20:00","2024-07-09 05:20:00",1720504800,1720591200,"KRAP 090520Z 0906/1006 VRB05KT P6SM SKC FM091800 36011KT P6SM SKC",1,"",44.0458,-103.054,965,2,"Rapid City Rgnl, SD, US",
16663338,"KRFD","2024-07-09 09:01:32","2024-07-09 09:01:00","2024-07-09 09:01:00",1720515600,1720591200,"KRFD 090901Z 0909/1006 24004KT P6SM SCT060 BKN200 FM092100 36006KT P6SM -SHRA SCT050 BKN070 OVC150 FM100000 05010KT 6SM -RA SCT020 OVC050 PROB30 1002/1006 4SM RA BKN018 OVC050",1,"AMD",42.1915,-89.0876,222,3,"Rockford Intl, IL, US",
16662971,"KRHI","2024-07-09 08:22:16","2024-07-09 08:22:00","2024-07-09 08:22:00",1720512000,1720591200,"KRHI 090822Z 0908/1006 VRB03KT 2SM BR SCT003 TEMPO 0908/0909 1/2SM FG BKN003 FM090900 VRB03KT 1SM BR SCT002 TEMPO 0909/0912 1/2SM FG OVC002 FM091300 VRB03KT 3SM BR SCT250 FM091400 31005KT P6SM SKC FM091700 31005KT P6SM SCT035 TEMPO 0917/0920 BKN035",1,"AMD",45.6315,-89.4822,493,4,"Rhinelander/Oneida Cnty, WI, US",
16660833,"KRIL","2024-07-09 05:20:23","2024-07-09 05:20:00","2024-07-09 05:20:00",1720504800,1720591200,"KRIL 090520Z 0906/1006 12005KT P6SM SKC FM091400 VRB03KT P6SM SKC FM091900 33008KT P6SM FEW100 FM100300 12006KT P6SM SKC",1,"",39.5279,-107.72,1683,4,"Rifle/Garfield Cnty, CO, US",
16661316,"KRIW","2024-07-09 05:26:33","2024-07-09 05:26:00","2024-07-09 05:26:00",1720504800,1720591200,"KRIW 090526Z 0906/1006 06007KT P6SM FEW120 FM090900 32006KT P6SM SKC FM091800 05010KT P6SM SKC",1,"",43.0622,-108.447,1662,5,"Riverton Rgnl, WY, US",
16661315,"KRKS","2024-07-09 05:26:33","2024-07-09 05:26:00","2024-07-09 05:26:00",1720504800,1720591200,"KRKS 090526Z 0906/1006 19007KT P6SM SKC FM091900 29010KT P6SM SKC FM100200 05009KT P6SM SKC",1,"",41.5947,-109.053,2062,3,"Rock Springs/SW Wyoming Rgnl, WY, US",
16663477,"KRNH","2024-07-09 09:29:10","2024-07-09 09:29:00","2024-07-09 09:29:00",1720515600,1720591200,"KRNH 090929Z 0909/1006 00000KT 3SM BR SKC TEMPO 0909/0912 1/2SM FG VV005 FM091300 31005KT P6SM SCT080",1,"AMD",45.1476,-92.5335,302,4,"New Richmond Muni, WI, US",
16661409,"KRSL","2024-07-09 05:29:15","2024-07-09 05:29:00","2024-07-09 05:29:00",1720504800,1720591200,"KRSL 090529Z 0906/1006 09004KT P6SM SKC FM091300 00000KT P6SM SKC FM092000 01006KT P6SM FEW250 FM092100 36007KT P6SM FEW250",1,"",38.8725,-98.8093,569,3,"Russell Muni, KS, US",
16660581,"KRST","2024-07-09 05:20:06","2024-07-09 05:20:00","2024-07-09 05:20:00",1720504800,1720591200,"KRST 090520Z 0906/1006 27006KT P6SM SCT250 FM091500 34006KT P6SM BKN100",1,"",43.904,-92.4921,398,3,"Rochester Intl, MN, US",
16661069,"KRWF","2024-07-09 05:20:54","2024-07-09 05:20:00","2024-07-09 05:20:00",1720504800,1720591200,"KRWF 090520Z 0906/1006 00000KT P6SM SKC FM091400 30005KT P6SM SCT080",1,"",44.5483,-95.0804,312,3,"Redwood Falls Muni, MN, US",
16660705,"KRWL","2024-07-09 05:20:14","2024-07-09 05:20:00","2024-07-09 05:20:00",1720504800,1720591200,"KRWL 090520Z 0906/1006 VRB03KT P6SM SCT250 FM091900 02008KT P6SM BKN250",1,"",41.8065,-107.195,2066,3,"Rawlins Muni, WY, US",
16663254,"KSAW","2024-07-09 08:46:40","2024-07-09 08:46:00","2024-07-09 08:46:00",1720515600,1720591200,"KSAW 090846Z 0909/1006 30005KT P6SM SKC FM091300 34005KT P6SM SKC FM091800 04008KT P6SM SCT050",1,"AMD",46.341,-87.395,359,2,"Marquette/Sawyer Intl, MI, US",
16661391,"KSBN","2024-07-09 05:28:39","2024-07-09 05:28:00","2024-07-09 05:28:00",1720504800,1720591200,"KSBN 090528Z 0906/1006 VRB03KT 5SM BR FEW040 BKN100 FM091300 22005KT P6SM VCSH SCT040 OVC100 FM092000 VRB04KT P6SM -SHRA OVC040 PROB30 0920/1002 -TSRA OVC030CB FM100200 03011KT 3SM SHRA VCTS OVC015CB",1,"",41.7072,-86.3163,236,3,"South Bend Rgnl, IN, US",
16660599,"KSDF","2024-07-09 05:20:07","2024-07-09 05:20:00","2024-07-09 05:20:00",1720504800,1720612800,"KSDF 090520Z 0906/1012 VRB03KT P6SM OVC250 FM091400 08006KT P6SM VCSH BKN080 FM091600 15010KT P6SM BKN060 PROB30 0920/1001 2SM TSRA OVC040CB FM100200 19012G18KT P6SM VCTS BKN035CB FM100600 23014G21KT P6SM BKN015",1,"",38.1774,-85.7308,146,3,"Louisville Intl, KY, US",
16663517,"KSGF","2024-07-09 09:41:58","2024-07-09 09:41:00","2024-07-09 09:41:00",1720519200,1720591200,"KSGF 090941Z 0910/1006 13006KT P6SM -RA OVC050 TEMPO 0910/0914 5SM SHRA BR OVC015 FM091900 01010KT P6SM BKN070",1,"AMD",37.2398,-93.39,387,2,"Springfield Muni, MO, US",
16661957,"KSJS","2024-07-09 05:40:42","2024-07-09 05:40:00","2024-07-09 05:40:00",1720504800,1720591200,"KSJS 090540Z 0906/1006 VRB03KT P6SM FEW250 FM092000 VRB03KT P6SM VCTS SCT040CB BKN100 FM100000 VRB03KT P6SM FEW040 SCT100",1,"",37.7489,-82.6413,359,4,"Prestonburg/Big Sandy Rgnl, KY, US",
16661408,"KSLN","2024-07-09 05:29:15","2024-07-09 05:29:00","2024-07-09 05:29:00",1720504800,1720591200,"KSLN 090529Z 0906/1006 00000KT P6SM SKC FM091500 34005KT P6SM SKC FM091700 36007KT P6SM FEW250 FM100300 11004KT P6SM SKC",1,"",38.78,-97.6446,377,3,"Salina Rgnl, KS, US",
16661958,"KSME","2024-07-09 05:40:42","2024-07-09 05:40:00","2024-07-09 05:40:00",1720504800,1720591200,"KSME 090540Z 0906/1006 VRB03KT P6SM SCT250 FM091700 VRB03KT P6SM VCTS FEW040CB SCT070 FM100200 VRB03KT P6SM FEW040 SCT100",1,"",37.0529,-84.6141,279,5,"Somerset/Lake Cumberland Rgnl, KY, US",
16660598,"KSNY","2024-07-09 05:20:07","2024-07-09 05:20:00","2024-07-09 05:20:00",1720504800,1720591200,"KSNY 090520Z 0906/1006 18006KT P6SM SKC FM091800 02012KT P6SM SCT250 FM100100 06010KT P6SM SCT250",1,"",41.0993,-102.986,1307,4,"Sidney/Carr Fld, NE, US",
16660713,"KSPI","2024-07-09 05:20:15","2024-07-09 05:20:00","2024-07-09 05:20:00",1720504800,1720591200,"KSPI 090520Z 0906/1006 VRB03KT P6SM SCT035 BKN100 FM090900 VRB03KT 6SM BR VCSH OVC035 FM091200 VRB03KT 4SM -RA BR OVC015 FM091800 01007KT 3SM RA BR OVC008",1,"",39.8453,-89.684,179,3,"Springfield/Lincoln Capital Arpt, IL, US",
16661067,"KSTC","2024-07-09 05:20:52","2024-07-09 05:20:00","2024-07-09 05:20:00",1720504800,1720591200,"KSTC 090520Z 0906/1006 00000KT P6SM SKC FM091400 31005KT P6SM SCT080",1,"",45.5442,-94.0517,302,3,"St Cloud Rgnl, MN, US",
16660569,"KSTJ","2024-07-09 05:20:05","2024-07-09 05:20:00","2024-07-09 05:20:00",1720504800,1720591200,"KSTJ 090520Z 0906/1006 VRB05KT P6SM SCT250 FM091200 01006KT P6SM BKN200",1,"",39.7683,-94.9095,247,4,"St Joseph/Rosecrans Mem, MO, US",
16663334,"KSTL","2024-07-09 09:01:06","2024-07-09 09:01:00","2024-07-09 09:01:00",1720515600,1720612800,"KSTL 090901Z 0909/1012 VRB04KT 6SM -RA OVC100 FM091200 VRB03KT 6SM -RA OVC030 FM091400 VRB04KT 5SM SHRA BR OVC015 FM092100 02010G21KT 2SM +SHRA BR OVC010 FM100300 35010KT 4SM SHRA BR BKN015 FM100600 32009KT P6SM VCSH BKN025",1,"AMD",38.7524,-90.3734,163,1,"St Louis/Lambert Intl, MO, US",
16663346,"KSUS","2024-07-09 09:01:46","2024-07-09 09:01:00","2024-07-09 09:01:00",1720515600,1720591200,"KSUS 090901Z 0909/1006 VRB03KT 6SM -RA OVC100 TEMPO 0909/0911 5SM -RA FM091200 VRB03KT 6SM -SHRA OVC030 FM091400 VRB04KT 5SM SHRA BR OVC015 FM092100 02010G21KT 2SM +SHRA BR OVC010 FM100300 35010KT 4SM SHRA BR BKN015",1,"AMD",38.6575,-90.6557,140,5,"St Louis/Spirit of St Louis Arpt, MO, US",
16660965,"KSUX","2024-07-09 05:20:32","2024-07-09 05:20:00","2024-07-09 05:20:00",1720504800,1720591200,"KSUX 090520Z 0906/1006 VRB03KT P6SM SCT250 FM091700 VRB03KT P6SM SCT250",1,"",42.3917,-96.3795,332,3,"Sioux City/Day Fld, IA, US",
16661932,"KSYM","2024-07-09 05:40:36","2024-07-09 05:40:00","2024-07-09 05:40:00",1720504800,1720591200,"KSYM 090540Z 0906/1006 VRB03KT P6SM SCT250 FM092000 VRB03KT P6SM VCTS FEW040CB BKN090",1,"",38.2199,-83.5835,307,5,"Morehead-Rowan Cnty, KY, US",
16660804,"KTEX","2024-07-09 05:20:21","2024-07-09 05:20:00","2024-07-09 05:20:00",1720504800,1720591200,"KTEX 090520Z 0906/1006 14005KT P6SM SKC FM091700 28006KT P6SM FEW080 FM100300 14005KT P6SM SKC",1,"",37.954,-107.909,2760,3,"Telluride Rgnl, CO, US",
16661592,"KTOP","2024-07-09 05:31:40","2024-07-09 05:31:00","2024-07-09 05:31:00",1720504800,1720591200,"KTOP 090531Z 0906/1006 36005KT P6SM SCT250",1,"",39.0724,-95.626,268,3,"Topeka/Billard Muni, KS, US",
16661305,"KTVC","2024-07-09 05:26:16","2024-07-09 05:26:00","2024-07-09 05:26:00",1720504800,1720591200,"KTVC 090526Z 0906/1006 VRB03KT P6SM SCT025 BKN050 FM091500 01006KT P6SM BKN040",1,"",44.739,-85.5694,188,3,"Traverse City/Cherry Capital Arpt, MI, US",
16660636,"KTVF","2024-07-09 05:20:10","2024-07-09 05:20:00","2024-07-09 05:20:00",1720504800,1720591200,"KTVF 090520Z 0906/1006 VRB06KT P6SM SCT100 FM091800 VRB05KT P6SM SCT060",1,"",48.0597,-96.1787,339,4,"Thief River Rgnl, MN, US",
16660818,"KUES","2024-07-09 05:20:22","2024-07-09 05:20:00","2024-07-09 05:20:00",1720504800,1720591200,"KUES 090520Z 0906/1006 VRB03KT P6SM BKN250 FM091500 VRB04KT P6SM SCT040 BKN250 FM100100 VRB03KT P6SM BKN200",1,"",43.0425,-88.2465,273,6,"Waukesha Cnty, WI, US",
16660776,"KUIN","2024-07-09 05:20:19","2024-07-09 05:20:00","2024-07-09 05:20:00",1720504800,1720591200,"KUIN 090520Z 0906/1006 VRB03KT P6SM VCSH BKN150 FM091200 VRB03KT P6SM VCSH OVC015 FM091800 03005KT P6SM VCSH OVC030 FM092100 01006KT 6SM SHRA BR OVC040 FM100200 35005KT P6SM VCSH BKN060",1,"",39.9371,-91.1966,233,3,"Quincy/Baldwin Fld, IL, US",
16660664,"KVEL","2024-07-09 05:20:12","2024-07-09 05:20:00","2024-07-09 05:20:00",1720504800,1720591200,"KVEL 090520Z 0906/1006 35004KT P6SM SKC FM091500 15004KT P6SM FEW100 FM100300 35004KT P6SM SKC",1,"",40.4429,-109.513,1604,3,"Vernal Rgnl, UT, US",
16661129,"KVTN","2024-07-09 05:23:34","2024-07-09 05:23:00","2024-07-09 05:23:00",1720504800,1720591200,"KVTN 090523Z 0906/1006 VRB05KT P6SM SKC FM092000 06008KT P6SM SCT200 FM100200 VRB05KT P6SM SCT200",1,"",42.8585,-100.551,790,2,"Valentine/Miller Fld, NE, US",
16661314,"KWRL","2024-07-09 05:26:31","2024-07-09 05:26:00","2024-07-09 05:26:00",1720504800,1720591200,"KWRL 090526Z 0906/1006 18005KT P6SM SKC FM091700 33008KT P6SM SKC FM100400 18005KT P6SM SKC",1,"",43.9654,-107.95,1281,4,"Worland Muni, WY, US",
16661098,"KYIP","2024-07-09 05:21:34","2024-07-09 05:21:00","2024-07-09 05:21:00",1720504800,1720591200,"KYIP 090521Z 0906/1006 VRB03KT P6SM SCT120 BKN200 FM091600 25006KT P6SM SCT050 BKN080 PROB30 0919/0923 4SM TSRA OVC045CB FM100400 04006KT 4SM SHRA SCT025 OVC060",1,"",42.242,-83.5214,215,6,"Detroit/Willow Run Arpt, MI, US",
